[{"OBJECT_NAME":"STARLINK-30609","OBJECT_ID":"2023-160L","EPOCH":"2026-01-23T12:28:28.605792","MEAN_MOTION":15.02539658,"ECCENTRICITY":0.00016317,"INCLINATION":43.0055,"RA_OF_ASC_NODE":325.657,"ARG_OF_PERICENTER":249.0025,"MEAN_ANOMALY":111.0643,"EPHEMERIS_TYPE":0,"CLASSIFICATION_TYPE":"U","NORAD_CAT_ID":58085,"ELEMENT_SET_NO":999,"REV_AT_EPOCH":12612,"BSTAR":0.00040834998,"MEAN_MOTION_DOT":5.317e-5,"MEAN_MOTION_DDOT":0},{"OBJECT_NAME":"STARLINK-30583","OBJECT_ID":"2023-160M","EPOCH":"2026-01-23T20:22:19.698240","MEAN_MOTION":15.02551779,"ECCENTRICITY":0.000108,"INCLINATION":43.006,"RA_OF_ASC_NODE":323.8284,"ARG_OF_PERICENTER":304.4883,"MEAN_ANOMALY":55.5858,"EPHEMERIS_TYPE":0,"CLASSIFICATION_TYPE":"U","NORAD_CAT_ID":58086,"ELEMENT_SET_NO":999,"REV_AT_EPOCH":12617,"BSTAR":0.00040046095,"MEAN_MOTION_DOT":5.212e-5,"MEAN_MOTION_DDOT":0},{"OBJECT_NAME":"STARLINK-30557","OBJECT_ID":"2023-160N","EPOCH":"2026-01-23T20:20:44.138112","MEAN_MOTION":15.02511056,"ECCENTRICITY":8.64e-5,"INCLINATION":43.0031,"RA_OF_ASC_NODE":323.8217,"ARG_OF_PERICENTER":280.6115,"MEAN_ANOMALY":79.463,"EPHEMERIS_TYPE":0,"CLASSIFICATION_TYPE":"U","NORAD_CAT_ID":58087,"ELEMENT_SET_NO":999,"REV_AT_EPOCH":12617,"BSTAR":0.0014031924,"MEAN_MOTION_DOT":0.00018789,"MEAN_MOTION_DDOT":0},{"OBJECT_NAME":"STARLINK-30591","OBJECT_ID":"2023-160P","EPOCH":"2026-01-23T05:51:12.661056","MEAN_MOTION":15.02547116,"ECCENTRICITY":0.00012437,"INCLINATION":43.003,"RA_OF_ASC_NODE":327.0287,"ARG_OF_PERICENTER":253.3146,"MEAN_ANOMALY":106.756,"EPHEMERIS_TYPE":0,"CLASSIFICATION_TYPE":"U","NORAD_CAT_ID":58088,"ELEMENT_SET_NO":999,"REV_AT_EPOCH":12608,"BSTAR":0.00089057666,"MEAN_MOTION_DOT":0.0001185,"MEAN_MOTION_DDOT":0},{"OBJECT_NAME":"STARLINK-30584","OBJECT_ID":"2023-160Q","EPOCH":"2026-01-23T20:07:56.440416","MEAN_MOTION":15.02548008,"ECCENTRICITY":0.00013743,"INCLINATION":43.004,"RA_OF_ASC_NODE":323.7531,"ARG_OF_PERICENTER":301.4535,"MEAN_ANOMALY":58.6173,"EPHEMERIS_TYPE":0,"CLASSIFICATION_TYPE":"U","NORAD_CAT_ID":58089,"ELEMENT_SET_NO":999,"REV_AT_EPOCH":12617,"BSTAR":0.00033601704,"MEAN_MOTION_DOT":4.34e-5,"MEAN_MOTION_DDOT":0},{"OBJECT_NAME":"STARLINK-30590","OBJECT_ID":"2023-160R","EPOCH":"2026-01-22T20:21:37.020096","MEAN_MOTION":15.02529133,"ECCENTRICITY":0.0001702,"INCLINATION":43.0057,"RA_OF_ASC_NODE":329.2177,"ARG_OF_PERICENTER":266.7936,"MEAN_ANOMALY":93.2712,"EPHEMERIS_TYPE":0,"CLASSIFICATION_TYPE":"U","NORAD_CAT_ID":58090,"ELEMENT_SET_NO":999,"REV_AT_EPOCH":12602,"BSTAR":0.00028866838,"MEAN_MOTION_DOT":3.697e-5,"MEAN_MOTION_DDOT":0},{"OBJECT_NAME":"STARLINK-30608","OBJECT_ID":"2023-160S","EPOCH":"2026-01-23T20:03:08.951328","MEAN_MOTION":15.02554056,"ECCENTRICITY":0.0001135,"INCLINATION":43.0045,"RA_OF_ASC_NODE":323.7257,"ARG_OF_PERICENTER":310.167,"MEAN_ANOMALY":49.9073,"EPHEMERIS_TYPE":0,"CLASSIFICATION_TYPE":"U","NORAD_CAT_ID":58091,"ELEMENT_SET_NO":999,"REV_AT_EPOCH":12617,"BSTAR":0.00025582976,"MEAN_MOTION_DOT":3.255e-5,"MEAN_MOTION_DDOT":0},{"OBJECT_NAME":"STARLINK-30615","OBJECT_ID":"2023-160T","EPOCH":"2026-01-23T19:56:46.588992","MEAN_MOTION":15.02508577,"ECCENTRICITY":0.00014146,"INCLINATION":43.0025,"RA_OF_ASC_NODE":323.6928,"ARG_OF_PERICENTER":255.2207,"MEAN_ANOMALY":104.8479,"EPHEMERIS_TYPE":0,"CLASSIFICATION_TYPE":"U","NORAD_CAT_ID":58092,"ELEMENT_SET_NO":999,"REV_AT_EPOCH":12617,"BSTAR":0.0015272634,"MEAN_MOTION_DOT":0.00020472,"MEAN_MOTION_DDOT":0},{"OBJECT_NAME":"STARLINK-30578","OBJECT_ID":"2023-160U","EPOCH":"2026-01-23T21:00:39.597120","MEAN_MOTION":15.02553405,"ECCENTRICITY":7.626e-5,"INCLINATION":43.0053,"RA_OF_ASC_NODE":324.0145,"ARG_OF_PERICENTER":244.4953,"MEAN_ANOMALY":115.5811,"EPHEMERIS_TYPE":0,"CLASSIFICATION_TYPE":"U","NORAD_CAT_ID":58093,"ELEMENT_SET_NO":999,"REV_AT_EPOCH":12617,"BSTAR":0.0001816297,"MEAN_MOTION_DOT":2.252e-5,"MEAN_MOTION_DDOT":0},{"OBJECT_NAME":"STARLINK-30574","OBJECT_ID":"2023-160V","EPOCH":"2026-01-23T19:53:33.384768","MEAN_MOTION":15.02542828,"ECCENTRICITY":0.00012471,"INCLINATION":43.0048,"RA_OF_ASC_NODE":323.6768,"ARG_OF_PERICENTER":251.4084,"MEAN_ANOMALY":108.6623,"EPHEMERIS_TYPE":0,"CLASSIFICATION_TYPE":"U","NORAD_CAT_ID":58094,"ELEMENT_SET_NO":999,"REV_AT_EPOCH":12617,"BSTAR":0.00039039686,"MEAN_MOTION_DOT":5.075e-5,"MEAN_MOTION_DDOT":0},{"OBJECT_NAME":"STARLINK-30570","OBJECT_ID":"2023-160W","EPOCH":"2026-01-23T13:25:52.006944","MEAN_MOTION":15.02581216,"ECCENTRICITY":0.0001339,"INCLINATION":43.0021,"RA_OF_ASC_NODE":325.0966,"ARG_OF_PERICENTER":295.764,"MEAN_ANOMALY":64.3064,"EPHEMERIS_TYPE":0,"CLASSIFICATION_TYPE":"U","NORAD_CAT_ID":58095,"ELEMENT_SET_NO":999,"REV_AT_EPOCH":12613,"BSTAR":0.0023128449,"MEAN_MOTION_DOT":0.00031216,"MEAN_MOTION_DDOT":0},{"OBJECT_NAME":"STARLINK-30581","OBJECT_ID":"2023-160X","EPOCH":"2026-01-23T13:16:25.173696","MEAN_MOTION":15.02542345,"ECCENTRICITY":0.00014633,"INCLINATION":43.0056,"RA_OF_ASC_NODE":325.8899,"ARG_OF_PERICENTER":250.7749,"MEAN_ANOMALY":109.2935,"EPHEMERIS_TYPE":0,"CLASSIFICATION_TYPE":"U","NORAD_CAT_ID":58096,"ELEMENT_SET_NO":999,"REV_AT_EPOCH":12612,"BSTAR":0.00048400918,"MEAN_MOTION_DOT":6.341e-5,"MEAN_MOTION_DDOT":0},{"OBJECT_NAME":"STARLINK-30594","OBJECT_ID":"2023-161A","EPOCH":"2026-01-23T23:01:22.554912","MEAN_MOTION":15.30216695,"ECCENTRICITY":0.00012151,"INCLINATION":53.1616,"RA_OF_ASC_NODE":13.2712,"ARG_OF_PERICENTER":90.5062,"MEAN_ANOMALY":269.6079,"EPHEMERIS_TYPE":0,"CLASSIFICATION_TYPE":"U","NORAD_CAT_ID":58097,"ELEMENT_SET_NO":999,"REV_AT_EPOCH":12757,"BSTAR":0.00024463452,"MEAN_MOTION_DOT":6.897e-5,"MEAN_MOTION_DDOT":0},{"OBJECT_NAME":"STARLINK-30614","OBJECT_ID":"2023-161B","EPOCH":"2026-01-23T22:56:48.979680","MEAN_MOTION":15.30229412,"ECCENTRICITY":0.00021681,"INCLINATION":53.1615,"RA_OF_ASC_NODE":13.2523,"ARG_OF_PERICENTER":72.6829,"MEAN_ANOMALY":287.4409,"EPHEMERIS_TYPE":0,"CLASSIFICATION_TYPE":"U","NORAD_CAT_ID":58098,"ELEMENT_SET_NO":999,"REV_AT_EPOCH":12757,"BSTAR":0.00047095313,"MEAN_MOTION_DOT":0.00013627,"MEAN_MOTION_DDOT":0},{"OBJECT_NAME":"STARLINK-30607","OBJECT_ID":"2023-161C","EPOCH":"2026-01-23T23:01:29.548128","MEAN_MOTION":15.30217857,"ECCENTRICITY":0.00010338,"INCLINATION":53.1596,"RA_OF_ASC_NODE":3.2742,"ARG_OF_PERICENTER":76.4373,"MEAN_ANOMALY":283.6743,"EPHEMERIS_TYPE":0,"CLASSIFICATION_TYPE":"U","NORAD_CAT_ID":58099,"ELEMENT_SET_NO":999,"REV_AT_EPOCH":12770,"BSTAR":0.0017115639,"MEAN_MOTION_DOT":0.00050707,"MEAN_MOTION_DDOT":0},{"OBJECT_NAME":"STARLINK-30600","OBJECT_ID":"2023-161D","EPOCH":"2026-01-23T23:10:29.981856","MEAN_MOTION":15.30235889,"ECCENTRICITY":0.00012514,"INCLINATION":53.161,"RA_OF_ASC_NODE":13.2972,"ARG_OF_PERICENTER":80.9777,"MEAN_ANOMALY":279.1365,"EPHEMERIS_TYPE":0,"CLASSIFICATION_TYPE":"U","NORAD_CAT_ID":58100,"ELEMENT_SET_NO":999,"REV_AT_EPOCH":12757,"BSTAR":0.0010743665,"MEAN_MOTION_DOT":0.00031631,"MEAN_MOTION_DDOT":0}]
