STARLINK-30609          
1 58085U 23160L   26023.51977553  .00005317  00000+0  40835-3 0  9991
2 58085  43.0055 325.6570 0001631 249.0025 111.0643 15.02539658126128
STARLINK-30583          
1 58086U 23160M   26023.84883910  .00005212  00000+0  40046-3 0  9999
2 58086  43.0060 323.8284 0001080 304.4883  55.5858 15.02551779126176
STARLINK-30557          
1 58087U 23160N   26023.84773308  .00018789  00000+0  14032-2 0  9997
2 58087  43.0031 323.8217 0000864 280.6115  79.4630 15.02511056126170
STARLINK-30591          
1 58088U 23160P   26023.24389654  .00011850  00000+0  89058-3 0  9992
2 58088  43.0030 327.0287 0001243 253.3146 106.7560 15.02547116126088
STARLINK-30584          
1 58089U 23160Q   26023.83884769  .00004340  00000+0  33602-3 0  9995
2 58089  43.0040 323.7531 0001374 301.4535  58.6173 15.02548008126173
STARLINK-30590          
1 58090U 23160R   26022.84834514  .00003697  00000+0  28867-3 0  9991
2 58090  43.0057 329.2177 0001702 266.7936  93.2712 15.02529133126029
STARLINK-30608          
1 58091U 23160S   26023.83552027  .00003255  00000+0  25583-3 0  9990
2 58091  43.0045 323.7257 0001135 310.1670  49.9073 15.02554056126170
STARLINK-30615          
1 58092U 23160T   26023.83109478  .00020472  00000+0  15273-2 0  9993
2 58092  43.0025 323.6928 0001414 255.2207 104.8479 15.02508577126176
STARLINK-30578          
1 58093U 23160U   26023.87545830  .00002252  00000+0  18163-3 0  9992
2 58093  43.0053 324.0145 0000762 244.4953 115.5811 15.02553405126176
STARLINK-30574          
1 58094U 23160V   26023.82885862  .00005075  00000+0  39040-3 0  9993
2 58094  43.0048 323.6768 0001247 251.4084 108.6623 15.02542828126170
STARLINK-30570          
1 58095U 23160W   26023.55962971  .00031216  00000+0  23128-2 0  9996
2 58095  43.0021 325.0966 0001339 295.7640  64.3064 15.02581216126136
STARLINK-30581          
1 58096U 23160X   26023.55306914  .00006341  00000+0  48401-3 0  9999
2 58096  43.0056 325.8899 0001463 250.7749 109.2935 15.02542345126122
STARLINK-30594          
1 58097U 23161A   26023.95928883  .00006897  00000+0  24463-3 0  9998
2 58097  53.1616  13.2712 0001215  90.5062 269.6079 15.30216695127579
STARLINK-30614          
1 58098U 23161B   26023.95612245  .00013627  00000+0  47095-3 0  9996
2 58098  53.1615  13.2523 0002168  72.6829 287.4409 15.30229412127575
STARLINK-30607          
1 58099U 23161C   26023.95936977  .00050707  00000+0  17116-2 0  9998
2 58099  53.1596   3.2742 0001033  76.4373 283.6743 15.30217857127706
STARLINK-30600          
1 58100U 23161D   26023.96562479  .00031631  00000+0  10744-2 0  9999
2 58100  53.1610  13.2972 0001251  80.9777 279.1365 15.30235889127572
